{"fetched_at":"2026-03-29T16:36:15Z","count":15609,"tles":[{"name":"TRANSPORTER-10 OBJECT AG","line1":"1 59128U 24043AG  26087.88061777  .00009156  00000+0  30711-3 0  9990","line2":"2 59128  97.5502 224.9963 0010674 158.2988 201.8707 15.31073294114825","category":"Other"}]}